[{"OBJECT_NAME":"DONGPO 10","OBJECT_ID":"2022-167H","EPOCH":"2026-03-09T22:44:56.137344","MEAN_MOTION":15.322785,"ECCENTRICITY":0.00061655,"INCLINATION":97.685,"RA_OF_ASC_NODE":235.0962,"ARG_OF_PERICENTER":106.9526,"MEAN_ANOMALY":253.2392,"EPHEMERIS_TYPE":0,"CLASSIFICATION_TYPE":"U","NORAD_CAT_ID":54689,"ELEMENT_SET_NO":999,"REV_AT_EPOCH":18015,"BSTAR":0.00049390523,"MEAN_MOTION_DOT":0.00015333,"MEAN_MOTION_DDOT":0},{"OBJECT_NAME":"STARLINK-35862","OBJECT_ID":"2025-271M","EPOCH":"2026-03-09T11:27:43.364736","MEAN_MOTION":15.30197618,"ECCENTRICITY":7.934e-5,"INCLINATION":53.1564,"RA_OF_ASC_NODE":140.9573,"ARG_OF_PERICENTER":90.6009,"MEAN_ANOMALY":269.5083,"EPHEMERIS_TYPE":0,"CLASSIFICATION_TYPE":"U","NORAD_CAT_ID":66628,"ELEMENT_SET_NO":999,"REV_AT_EPOCH":1753,"BSTAR":0.00060038737,"MEAN_MOTION_DOT":0.00017463,"MEAN_MOTION_DDOT":0}]
